QIANFAN-65              
1 62795U 25016L   25342.87919565  .00000178  00000+0  25733-3 0  9997
2 62795  88.9759 103.4576 0013419   1.2051 358.9130 13.50982864 46724
QIANFAN-66              
1 62796U 25016M   25342.90795638  .00000179  00000+0  25840-3 0  9995
2 62796  88.9779 103.4240 0014394 355.9833   4.1200 13.50975626 46776
QIANFAN-67              
1 62797U 25016N   25342.91222160  .00000173  00000+0  24876-3 0  9994
2 62797  88.9769 103.4495 0014558   3.1274 356.9965 13.50979793 46743
QIANFAN-68              
1 62798U 25016P   25342.90392309  .00000176  00000+0  25428-3 0  9994
2 62798  88.9773 103.4954 0014562   1.2940 358.8247 13.50982173 46721
QIANFAN-69              
1 62799U 25016Q   25342.92042519  .00000176  00000+0  25424-3 0  9998
2 62799  88.9752 103.3639 0015345   2.0861 358.0351 13.50985018 46762
QIANFAN-70              
1 62800U 25016R   25342.93682277  .00000178  00000+0  25676-3 0  9994
2 62800  88.9772 103.4999 0014683 352.2137   7.8783 13.50975890 46728
QIANFAN-71              
1 62801U 25016S   25342.93268271  .00000174  00000+0  25106-3 0  9993
2 62801  88.9766 103.4801 0015366   5.7009 354.4315 13.50983000 46725
QIANFAN-72              
1 62802U 25016T   25342.94915641  .00000171  00000+0  24552-3 0  9996
2 62802  88.9757 103.4921 0018826  11.8788 348.2803 13.50982974 46716
